{"type": "FeatureCollection", "features": [{"type": "Feature", "properties": {"norad_id": 28890, "name": "BEIJING 1", "group": "dmc", "lat": -45.24613688582589, "lon": 136.75054059271753, "alt_km": 698.2770005198909, "timestamp": "2025-12-26T18:39:31.938938+00:00", "meta": {"OBJECT_NAME": "BEIJING 1", "OBJECT_ID": "2005-043A", "EPOCH": "2025-12-26T15:35:10.906656", "MEAN_MOTION": 14.63378963, "ECCENTRICITY": 0.00158632, "INCLINATION": 98.2664, "RA_OF_ASC_NODE": 128.1902, "ARG_OF_PERICENTER": 100.4442, "MEAN_ANOMALY": 259.8548, "EPHEMERIS_TYPE": 0, "CLASSIFICATION_TYPE": "U", "NORAD_CAT_ID": 28890, "ELEMENT_SET_NO": 999, "REV_AT_EPOCH": 7541, "BSTAR": 0.00011630887, "MEAN_MOTION_DOT": 5.53e-06, "MEAN_MOTION_DDOT": 0}, "tle": {"line1": "1 28890U 05043A   25360.64943179  .00000553  00000+0  11631-3 0  9995", "line2": "2 28890  98.2664 128.1902 0015863 100.4442 259.8548 14.63378963 75413"}}, "geometry": {"type": "Point", "coordinates": [136.75054059271753, -45.24613688582589]}}, {"type": "Feature", "properties": {"norad_id": 33320, "name": "HUANJING 1A (HJ-1A)", "group": "dmc", "lat": -82.0181123037509, "lon": 62.07313278108174, "alt_km": 622.8712006121759, "timestamp": "2025-12-26T18:39:31.938962+00:00", "meta": {"OBJECT_NAME": "HUANJING 1A (HJ-1A)", "OBJECT_ID": "2008-041A", "EPOCH": "2025-12-26T14:11:46.641984", "MEAN_MOTION": 14.83437192, "ECCENTRICITY": 0.001906, "INCLINATION": 97.6553, "RA_OF_ASC_NODE": 348.312, "ARG_OF_PERICENTER": 350.0346, "MEAN_ANOMALY": 10.0488, "EPHEMERIS_TYPE": 0, "CLASSIFICATION_TYPE": "U", "NORAD_CAT_ID": 33320, "ELEMENT_SET_NO": 999, "REV_AT_EPOCH": 93281, "BSTAR": 0.00023594641, "MEAN_MOTION_DOT": 1.892e-05, "MEAN_MOTION_DDOT": 0}, "tle": {"line1": "1 33320U 08041A   25360.59151206  .00001892  00000+0  23595-3 0  9995", "line2": "2 33320  97.6553 348.3120 0019060 350.0346  10.0488 14.83437192932812"}}, "geometry": {"type": "Point", "coordinates": [62.07313278108174, -82.0181123037509]}}, {"type": "Feature", "properties": {"norad_id": 33321, "name": "HUANJING 1B (HJ-1B)", "group": "dmc", "lat": 73.28775664389077, "lon": -161.28974298473383, "alt_km": 605.7792903798763, "timestamp": "2025-12-26T18:39:31.938977+00:00", "meta": {"OBJECT_NAME": "HUANJING 1B (HJ-1B)", "OBJECT_ID": "2008-041B", "EPOCH": "2025-12-26T14:57:05.472000", "MEAN_MOTION": 14.82859513, "ECCENTRICITY": 0.00376752, "INCLINATION": 97.6412, "RA_OF_ASC_NODE": 352.0026, "ARG_OF_PERICENTER": 31.7378, "MEAN_ANOMALY": 328.6096, "EPHEMERIS_TYPE": 0, "CLASSIFICATION_TYPE": "U", "NORAD_CAT_ID": 33321, "ELEMENT_SET_NO": 999, "REV_AT_EPOCH": 93283, "BSTAR": 0.00022936671, "MEAN_MOTION_DOT": 1.829e-05, "MEAN_MOTION_DDOT": 0}, "tle": {"line1": "1 33321U 08041B   25360.62298000  .00001829  00000+0  22937-3 0  9993", "line2": "2 33321  97.6412 352.0026 0037675  31.7378 328.6096 14.82859513932833"}}, "geometry": {"type": "Point", "coordinates": [-161.28974298473383, 73.28775664389077]}}, {"type": "Feature", "properties": {"norad_id": 33446, "name": "YAOGAN-4", "group": "dmc", "lat": 9.454621404567991, "lon": -70.58814235160499, "alt_km": 623.4013392336592, "timestamp": "2025-12-26T18:39:31.938989+00:00", "meta": {"OBJECT_NAME": "YAOGAN-4", "OBJECT_ID": "2008-061A", "EPOCH": "2025-12-26T05:39:31.954464", "MEAN_MOTION": 14.82721305, "ECCENTRICITY": 0.00129545, "INCLINATION": 97.9198, "RA_OF_ASC_NODE": 290.2038, "ARG_OF_PERICENTER": 275.3518, "MEAN_ANOMALY": 84.6217, "EPHEMERIS_TYPE": 0, "CLASSIFICATION_TYPE": "U", "NORAD_CAT_ID": 33446, "ELEMENT_SET_NO": 999, "REV_AT_EPOCH": 92003, "BSTAR": 0.00018765921, "MEAN_MOTION_DOT": 1.463e-05, "MEAN_MOTION_DDOT": 0}, "tle": {"line1": "1 33446U 08061A   25360.23578651  .00001463  00000+0  18766-3 0  9992", "line2": "2 33446  97.9198 290.2038 0012954 275.3518  84.6217 14.82721305920036"}}, "geometry": {"type": "Point", "coordinates": [-70.58814235160499, 9.454621404567991]}}, {"type": "Feature", "properties": {"norad_id": 35681, "name": "DEIMOS-1", "group": "dmc", "lat": 69.92451479805266, "lon": 2.503543335338817, "alt_km": 637.3914077335039, "timestamp": "2025-12-26T18:39:31.939001+00:00", "meta": {"OBJECT_NAME": "DEIMOS-1", "OBJECT_ID": "2009-041A", "EPOCH": "2025-12-26T14:54:44.637408", "MEAN_MOTION": 14.74974416, "ECCENTRICITY": 0.00023944, "INCLINATION": 97.7158, "RA_OF_ASC_NODE": 160.5791, "ARG_OF_PERICENTER": 58.6265, "MEAN_ANOMALY": 301.5179, "EPHEMERIS_TYPE": 0, "CLASSIFICATION_TYPE": "U", "NORAD_CAT_ID": 35681, "ELEMENT_SET_NO": 999, "REV_AT_EPOCH": 88144, "BSTAR": 0.00016841974, "MEAN_MOTION_DOT": 1.085e-05, "MEAN_MOTION_DDOT": 0}, "tle": {"line1": "1 35681U 09041A   25360.62134997  .00001085  00000+0  16842-3 0  9991", "line2": "2 35681  97.7158 160.5791 0002394  58.6265 301.5179 14.74974416881449"}}, "geometry": {"type": "Point", "coordinates": [2.503543335338817, 69.92451479805266]}}, {"type": "Feature", "properties": {"norad_id": 35683, "name": "UK-DMC 2", "group": "dmc", "lat": 21.909164431267612, "lon": -41.531339160072875, "alt_km": 642.4318287054393, "timestamp": "2025-12-26T18:39:31.939012+00:00", "meta": {"OBJECT_NAME": "UK-DMC 2", "OBJECT_ID": "2009-041C", "EPOCH": "2025-12-26T14:41:29.855040", "MEAN_MOTION": 14.7565229, "ECCENTRICITY": 0.00016, "INCLINATION": 97.8574, "RA_OF_ASC_NODE": 135.1242, "ARG_OF_PERICENTER": 91.1939, "MEAN_ANOMALY": 268.9454, "EPHEMERIS_TYPE": 0, "CLASSIFICATION_TYPE": "U", "NORAD_CAT_ID": 35683, "ELEMENT_SET_NO": 999, "REV_AT_EPOCH": 88111, "BSTAR": 0.00024248425, "MEAN_MOTION_DOT": 1.607e-05, "MEAN_MOTION_DDOT": 0}, "tle": {"line1": "1 35683U 09041C   25360.61215110  .00001607  00000+0  24248-3 0  9998", "line2": "2 35683  97.8574 135.1242 0001600  91.1939 268.9454 14.75652290881112"}}, "geometry": {"type": "Point", "coordinates": [-41.531339160072875, 21.909164431267612]}}, {"type": "Feature", "properties": {"norad_id": 40715, "name": "DMC3-FM1", "group": "dmc", "lat": -18.081424217324294, "lon": -130.02109646930407, "alt_km": 616.7063834210539, "timestamp": "2025-12-26T18:39:31.939023+00:00", "meta": {"OBJECT_NAME": "DMC3-FM1", "OBJECT_ID": "2015-032A", "EPOCH": "2025-12-26T15:30:27.113760", "MEAN_MOTION": 14.85462395, "ECCENTRICITY": 0.00041029, "INCLINATION": 97.6678, "RA_OF_ASC_NODE": 227.3314, "ARG_OF_PERICENTER": 261.9754, "MEAN_ANOMALY": 98.0996, "EPHEMERIS_TYPE": 0, "CLASSIFICATION_TYPE": "U", "NORAD_CAT_ID": 40715, "ELEMENT_SET_NO": 999, "REV_AT_EPOCH": 56429, "BSTAR": 8.2509505e-05, "MEAN_MOTION_DOT": 6.6e-06, "MEAN_MOTION_DDOT": 0}, "tle": {"line1": "1 40715U 15032A   25360.64614715  .00000660  00000+0  82510-4 0  9999", "line2": "2 40715  97.6678 227.3314 0004102 261.9754  98.0996 14.85462395564299"}}, "geometry": {"type": "Point", "coordinates": [-130.02109646930407, -18.081424217324294]}}, {"type": "Feature", "properties": {"norad_id": 40716, "name": "DMC3-FM2", "group": "dmc", "lat": -41.29153161593653, "lon": 42.11127489580873, "alt_km": 616.5658868631826, "timestamp": "2025-12-26T18:39:31.939033+00:00", "meta": {"OBJECT_NAME": "DMC3-FM2", "OBJECT_ID": "2015-032B", "EPOCH": "2025-12-26T14:25:49.245888", "MEAN_MOTION": 14.85466669, "ECCENTRICITY": 0.00045523, "INCLINATION": 97.6736, "RA_OF_ASC_NODE": 228.742, "ARG_OF_PERICENTER": 269.5407, "MEAN_ANOMALY": 90.5287, "EPHEMERIS_TYPE": 0, "CLASSIFICATION_TYPE": "U", "NORAD_CAT_ID": 40716, "ELEMENT_SET_NO": 999, "REV_AT_EPOCH": 56428, "BSTAR": 0.00015335581, "MEAN_MOTION_DOT": 1.271e-05, "MEAN_MOTION_DDOT": 0}, "tle": {"line1": "1 40716U 15032B   25360.60126442  .00001271  00000+0  15336-3 0  9991", "line2": "2 40716  97.6736 228.7420 0004552 269.5407  90.5287 14.85466669564283"}}, "geometry": {"type": "Point", "coordinates": [42.11127489580873, -41.29153161593653]}}, {"type": "Feature", "properties": {"norad_id": 40717, "name": "DMC3-FM3", "group": "dmc", "lat": 72.76167204511502, "lon": 76.3302704173789, "alt_km": 607.8013467187984, "timestamp": "2025-12-26T18:39:31.939044+00:00", "meta": {"OBJECT_NAME": "DMC3-FM3", "OBJECT_ID": "2015-032C", "EPOCH": "2025-12-26T14:57:08.261856", "MEAN_MOTION": 14.85451396, "ECCENTRICITY": 0.000387, "INCLINATION": 97.6793, "RA_OF_ASC_NODE": 230.4053, "ARG_OF_PERICENTER": 270.8241, "MEAN_ANOMALY": 89.2531, "EPHEMERIS_TYPE": 0, "CLASSIFICATION_TYPE": "U", "NORAD_CAT_ID": 40717, "ELEMENT_SET_NO": 999, "REV_AT_EPOCH": 56429, "BSTAR": 0.00010085667, "MEAN_MOTION_DOT": 8.18e-06, "MEAN_MOTION_DDOT": 0}, "tle": {"line1": "1 40717U 15032C   25360.62301229  .00000818  00000+0  10086-3 0  9995", "line2": "2 40717  97.6793 230.4053 0003870 270.8241  89.2531 14.85451396564291"}}, "geometry": {"type": "Point", "coordinates": [76.3302704173789, 72.76167204511502]}}]}